NORAD_CAT_ID,OBJECT_NAME,OBJECT_TYPE,EPOCH,MEAN_MOTION,ECCENTRICITY,INCLINATION,RA_OF_ASC_NODE,ARG_OF_PERICENTER,MEAN_ANOMALY,BSTAR,MEAN_MOTION_DOT,MEAN_MOTION_DDOT,TLE_LINE0,TLE_LINE1,TLE_LINE2,SEMIMAJOR_AXIS,PERIOD,APOGEE,PERIGEE,DECAYED
56816.0,STARLINK-6067,PAYLOAD,2023-07-07 18:22:36,15.69926837,0.0003797,69.9994,307.8748,275.1894,84.8869,7.6246e-05,8.967e-05,0.0,0 STARLINK-6067,1 56816U 23078BB  23188.76570330  .00008967  00000-0  76246-4 0  9998,2 56816  69.9994 307.8748 0003797 275.1894  84.8869 15.69926837  6198,6737.243,91.724,361.666,356.55,0.0
56816.0,STARLINK-6067,PAYLOAD,2023-07-08 09:40:08,15.69914125,0.000388,69.999,306.0828,271.5666,88.5085,-5.8703e-06,-9.19e-06,0.0,0 STARLINK-6067,1 56816U 23078BB  23189.40287428 -.00000919  00000-0 -58703-5 0  9993,2 56816  69.9990 306.0828 0003880 271.5666  88.5085 15.69914125  6293,6737.28,91.725,361.759,356.531,0.0
56816.0,STARLINK-6067,PAYLOAD,2023-07-08 20:22:24,15.69948529,0.0003903,69.9989,304.8285,270.4645,89.6104,0.00046809,0.00056514,0.0,0 STARLINK-6067,1 56816U 23078BB  23189.84889075  .00056514  00000-0  46809-3 0  9999,2 56816  69.9989 304.8285 0003903 270.4645  89.6104 15.69948529  6362,6737.181,91.723,361.676,356.417,0.0
56816.0,STARLINK-6067,PAYLOAD,2023-07-09 04:01:09,15.69938402,0.0003915,69.9988,303.9325,269.7244,90.3503,0.00036146,0.00043506,0.0,0 STARLINK-6067,1 56816U 23078BB  23190.16747400  .00043506  00000-0  36146-3 0  9991,2 56816  69.9988 303.9325 0003915 269.7244  90.3503 15.69938402  6412,6737.21,91.723,361.713,356.438,0.0
56816.0,STARLINK-6067,PAYLOAD,2023-07-09 11:39:55,15.69943366,0.0003915,69.9988,303.0367,268.2501,91.8247,0.00017878,0.00021358,0.0,0 STARLINK-6067,1 56816U 23078BB  23190.48605575  .00021358  00000-0  17878-3 0  9994,2 56816  69.9988 303.0367 0003915 268.2501  91.8247 15.69943366  6460,6737.196,91.723,361.699,356.423,0.0
56816.0,STARLINK-6067,PAYLOAD,2023-07-09 17:46:55,15.69927584,0.0003783,69.9986,302.3201,270.8704,89.2058,0.00011774,0.00013971,0.0,0 STARLINK-6067,1 56816U 23078BB  23190.74092560  .00013971  00000-0  11774-3 0  9998,2 56816  69.9986 302.3201 0003783 270.8704  89.2058 15.69927584  6504,6737.241,91.724,361.655,356.557,0.0
56816.0,STARLINK-6067,PAYLOAD,2023-07-10 18:14:57,15.69928174,0.0003673,69.9985,299.4539,271.6791,88.3984,7.2461e-05,8.511e-05,0.0,0 STARLINK-6067,1 56816U 23078BB  23191.76039101  .00008511  00000-0  72461-4 0  9998,2 56816  69.9985 299.4539 0003673 271.6791  88.3984 15.69928174  6667,6737.239,91.724,361.579,356.63,0.0
56816.0,STARLINK-6067,PAYLOAD,2023-07-11 09:32:28,15.69930825,0.0003654,69.9984,297.662,271.4773,88.6004,5.871e-05,6.855e-05,0.0,0 STARLINK-6067,1 56816U 23078BB  23192.39755746  .00006855  00000-0  58710-4 0  9998,2 56816  69.9984 297.6620 0003654 271.4773  88.6004 15.69930825  6767,6737.232,91.724,361.559,356.635,0.0
56816.0,STARLINK-6067,PAYLOAD,2023-07-12 10:00:31,15.69926902,0.0003413,69.9984,294.7954,269.7983,90.2822,0.00021529,0.00025757,0.0,0 STARLINK-6067,1 56816U 23078BB  23193.41702654  .00025757  00000-0  21529-3 0  9991,2 56816  69.9984 294.7954 0003413 269.7983  90.2822 15.69926902  6927,6737.243,91.724,361.408,356.809,0.0
56816.0,STARLINK-6067,PAYLOAD,2023-07-13 16:35:33,15.69944378,0.0003556,69.9983,291.2111,277.8864,82.1928,0.00031433,0.00037786,0.0,0 STARLINK-6067,1 56816U 23078BB  23194.69136406  .00037786  00000-0  31433-3 0  9998,2 56816  69.9983 291.2111 0003556 277.8864  82.1928 15.69944378  7126,6737.193,91.723,361.454,356.662,0.0
56816.0,STARLINK-6067,PAYLOAD,2023-07-14 09:24:50,15.69936239,0.0003562,69.9987,289.2405,273.6039,86.475,0.00015109,0.00018003,0.0,0 STARLINK-6067,1 56816U 23078BB  23195.39224576  .00018003  00000-0  15109-3 0  9995,2 56816  69.9987 289.2405 0003562 273.6039  86.4750 15.69936239  7237,6737.216,91.723,361.481,356.682,0.0
56816.0,STARLINK-6067,PAYLOAD,2023-07-14 15:31:50,15.69959052,0.0003557,69.9987,288.5234,276.1731,83.9059,0.00026224,0.00031484,0.0,0 STARLINK-6067,1 56816U 23078BB  23195.64710905  .00031484  00000-0  26224-3 0  9997,2 56816  69.9987 288.5234 0003557 276.1731  83.9059 15.69959052  7276,6737.151,91.722,361.413,356.62,0.0
56816.0,STARLINK-6067,PAYLOAD,2023-07-14 23:10:35,15.69934283,0.0003484,69.9991,287.63,265.561,94.5188,0.00011339,0.00013449,0.0,0 STARLINK-6067,1 56816U 23078BB  23195.96569347  .00013449  00000-0  11339-3 0  9996,2 56816  69.9991 287.6300 0003484 265.5610  94.5188 15.69934283  7328,6737.222,91.724,361.434,356.74,0.0
56816.0,STARLINK-6067,PAYLOAD,2023-07-15 09:52:52,15.69919104,0.0003933,69.9981,286.3711,289.7025,70.3746,0.00011051,0.00013094,0.0,0 STARLINK-6067,1 56816U 23078BB  23196.41171834  .00013094  00000-0  11051-3 0  9994,2 56816  69.9981 286.3711 0003933 289.7025  70.3746 15.69919104  7390,6737.265,91.724,361.78,356.481,0.0
56816.0,STARLINK-6067,PAYLOAD,2023-07-15 15:59:52,15.69934807,0.0003644,69.9984,285.657,273.1963,86.8816,0.00023973,0.00028726,0.0,0 STARLINK-6067,1 56816U 23078BB  23196.66658138  .00028726  00000-0  23973-3 0  9992,2 56816  69.9984 285.6570 0003644 273.1963  86.8816 15.69934807  7437,6737.221,91.724,361.541,356.63,0.0
56816.0,STARLINK-6067,PAYLOAD,2023-07-16 01:10:23,15.69925272,0.0003644,69.9987,284.5826,268.7639,91.314,0.00011452,0.00013581,0.0,0 STARLINK-6067,1 56816U 23078BB  23197.04888294  .00013581  00000-0  11452-3 0  9995,2 56816  69.9987 284.5826 0003644 268.7639  91.3140 15.69925272  7495,6737.248,91.724,361.568,356.658,0.0
56816.0,STARLINK-6067,PAYLOAD,2023-07-16 07:17:24,15.69923511,0.0003612,69.9981,283.8668,271.2323,88.8459,4.3169e-05,4.981e-05,0.0,0 STARLINK-6067,1 56816U 23078BB  23197.30375054  .00004981  00000-0  43169-4 0  9994,2 56816  69.9981 283.8668 0003612 271.2323  88.8459 15.69923511  7532,6737.253,91.724,361.551,356.684,0.0
56816.0,STARLINK-6067,PAYLOAD,2023-07-16 16:27:54,15.69942592,0.0003973,69.9979,282.7927,272.7317,87.3424,0.00011539,0.00013696,0.0,0 STARLINK-6067,1 56816U 23078BB  23197.68604657  .00013696  00000-0  11539-3 0  9997,2 56816  69.9979 282.7927 0003973 272.7317  87.3424 15.69942592  7596,6737.198,91.723,361.74,356.387,0.0
56816.0,STARLINK-6067,PAYLOAD,2023-07-17 07:45:25,15.69927833,0.0003905,69.9987,280.9985,263.6523,96.4228,4.5993e-05,5.322e-05,0.0,0 STARLINK-6067,1 56816U 23078BB  23198.32321540  .00005322  00000-0  45993-4 0  9995,2 56816  69.9987 280.9985 0003905 263.6523  96.4228 15.69927833  7697,6737.24,91.724,361.736,356.475,0.0
56816.0,STARLINK-6067,PAYLOAD,2023-07-18 08:13:27,15.69926733,0.00032,69.9984,278.135,265.0229,95.0602,1.977e-05,2.165e-05,0.0,0 STARLINK-6067,1 56816U 23078BB  23199.34268507  .00002165  00000-0  19770-4 0  9997,2 56816  69.9984 278.1350 0003200 265.0229  95.0602 15.69926733  7853,6737.244,91.724,361.265,356.953,0.0
56816.0,STARLINK-6067,PAYLOAD,2023-07-19 08:41:30,15.69918736,0.0003089,69.9994,275.267,264.3481,95.7363,1.7827e-05,1.931e-05,0.0,0 STARLINK-6067,1 56816U 23078BB  23200.36215783  .00001931  00000-0  17827-4 0  9991,2 56816  69.9994 275.2670 0003089 264.3481  95.7363 15.69918736  8018,6737.266,91.724,361.213,357.05,0.0
56816.0,STARLINK-6067,PAYLOAD,2023-07-20 16:48:17,15.69927755,0.0003245,69.9989,271.5062,267.033,93.0494,3.2083e-05,3.647e-05,0.0,0 STARLINK-6067,1 56816U 23078BB  23201.70020636  .00003647  00000-0  32083-4 0  9998,2 56816  69.9989 271.5062 0003245 267.0330  93.0494 15.69927755  8223,6737.241,91.724,361.292,356.919,0.0
56816.0,STARLINK-6067,PAYLOAD,2023-07-21 17:16:20,15.69909311,0.0003774,69.9985,268.6389,265.9382,94.1382,-3.6522e-05,-4.6e-05,0.0,0 STARLINK-6067,1 56816U 23078BB  23202.71967650 -.00004600  00000-0 -36522-4 0  9990,2 56816  69.9985 268.6389 0003774 265.9382  94.1382 15.69909311  8382,6737.293,91.725,361.701,356.616,0.0
56816.0,STARLINK-6067,PAYLOAD,2023-07-24 03:22:54,15.69925105,0.0004288,69.9987,261.8297,266.2945,93.7761,1.4598e-05,1.543e-05,0.0,0 STARLINK-6067,1 56816U 23078BB  23205.14090422  .00001543  00000-0  14598-4 0  9994,2 56816  69.9987 261.8297 0004288 266.2945  93.7761 15.69925105  8506,6737.248,91.724,362.002,356.224,0.0
56816.0,STARLINK-6067,PAYLOAD,2023-07-25 11:29:42,15.69925828,0.0003577,69.9974,258.067,272.0128,88.0658,1.244e-05,1.283e-05,0.0,0 STARLINK-6067,1 56816U 23078BB  23206.47895917  .00001283  00000-0  12440-4 0  9998,2 56816  69.9974 258.0670 0003577 272.0128  88.0658 15.69925828  8710,6737.246,91.724,361.521,356.701,0.0
56816.0,STARLINK-6067,PAYLOAD,2023-07-26 05:50:43,15.69928037,0.0003613,69.997,255.9191,274.5031,85.5752,2.3639e-05,2.631e-05,0.0,0 STARLINK-6067,1 56816U 23078BB  23207.24355860  .00002631  00000-0  23639-4 0  9992,2 56816  69.9970 255.9191 0003613 274.5031  85.5752 15.69928037  8836,6737.24,91.724,361.539,356.671,0.0
56816.0,STARLINK-6067,PAYLOAD,2023-07-26 15:01:13,15.69931595,0.0003475,69.9972,254.8431,271.1585,88.9213,2.6245e-05,2.945e-05,0.0,0 STARLINK-6067,1 56816U 23078BB  23207.62585621  .00002945  00000-0  26245-4 0  9998,2 56816  69.9972 254.8431 0003475 271.1585  88.9213 15.69931595  8894,6737.23,91.724,361.436,356.754,0.0
56816.0,STARLINK-6067,PAYLOAD,2023-07-27 09:22:16,15.69914803,0.0003286,69.9975,252.6949,273.6779,86.4041,-4.5832e-06,-7.64e-06,0.0,0 STARLINK-6067,1 56816U 23078BB  23208.39046702 -.00000764  00000-0 -45832-5 0  9998,2 56816  69.9975 252.6949 0003286 273.6779  86.4041 15.69914803  9277,6737.278,91.725,361.357,356.929,0.0
56816.0,STARLINK-6067,PAYLOAD,2023-07-27 20:04:31,15.69933381,0.0003465,69.9959,251.4404,269.5305,90.5493,2.6041e-05,2.921e-05,0.0,0 STARLINK-6067,1 56816U 23078BB  23208.83647320  .00002921  00000-0  26041-4 0  9995,2 56816  69.9959 251.4404 0003465 269.5305  90.5493 15.69933381  9088,6737.225,91.724,361.424,356.755,0.0
56816.0,STARLINK-6067,PAYLOAD,2023-07-28 05:15:02,15.69919065,0.0003053,69.9981,250.3647,266.9497,93.1349,-3.6171e-06,-6.47e-06,0.0,0 STARLINK-6067,1 56816U 23078BB  23209.21878288 -.00000647  00000-0 -36171-5 0  9998,2 56816  69.9981 250.3647 0003053 266.9497  93.1349 15.69919065  9404,6737.266,91.724,361.187,357.074,0.0
